{"type": "FeatureCollection", "columns": {"ADM0_CODE": "Integer", "ADM0_NAME": "String", "ADM1_CODE": "Integer", "ADM1_NAME": "String", "ADM2_CODE": "Integer", "ADM2_NAME": "String", "DISP_AREA": "String", "EXP2_YEAR": "Integer", "STATUS": "String", "STR2_YEAR": "Integer", "Shape_Area": "Float", "Shape_Leng": "Float", "system:index": "String"}, "version": 1701682634012831, "id": "FAO/GAUL/2015/level2", "properties": {"system:asset_size": 316969462}, "features": [{"type": "Feature", "geometry": {"type": "Polygon", "coordinates": [[[72.7155908980913, 34.45464444643931], [72.71654068008255, 34.44964581972876], [72.72038892895746, 34.44794689780317], [72.7232873658872, 34.446644858583085], [72.72558823278881, 34.444446517369656], [72.72779103821111, 34.44144553820272], [72.73028812282416, 34.43724501401355], [72.73319104475556, 34.4340968792251], [72.7368876080249, 34.43104684752383], [72.7396879080817, 34.428545324610305], [72.74279147934651, 34.425147462117415], [72.74498980389654, 34.42334599048872], [72.74819143158832, 34.42044760960392], [72.75068849221124, 34.41784793813205], [72.75219124381643, 34.41384816753901], [72.74978781089119, 34.39574865911825], [72.74738877386746, 34.3927476453808], [72.7446910132729, 34.38734766373006], [72.74248826686403, 34.37864795883909], [72.74139130559401, 34.372846715148285], [72.74078929610249, 34.36984572824749], [72.74038795563342, 34.36634528344695], [72.74078929610249, 34.36194862612794], [72.74119063592514, 34.35834571906007], [72.7414537160828, 34.35554540311562], [72.74568983654598, 34.355148534214095], [72.74978781089119, 34.35724426680286], [72.75479089335006, 34.36014719949419], [72.75978954629028, 34.36364756757623], [72.76539014002628, 34.36644787631699], [72.77318913279824, 34.36404442431475], [72.77668950960881, 34.36224742018182], [72.78268702580118, 34.35984844188795], [72.78708817754432, 34.355045954660234], [72.78979034550922, 34.35264698618321], [72.79329075728164, 34.34984662856232], [72.79679111926957, 34.3482458371446], [72.80088905831694, 34.3469482226873], [72.80418878371034, 34.346248151514516], [72.813691160672, 34.349645969029524], [72.81718708431856, 34.350845502512904], [72.81938988548085, 34.353445127129035], [72.82328711434825, 34.3563480263512], [72.82779085803836, 34.354845283124554], [72.83448843858486, 34.35104616079218], [72.83909015192117, 34.34654692979367], [72.84158728179398, 34.344147958967845], [72.84279125724048, 34.34064754431824], [72.85168714834369, 34.33454743890678], [72.85938802110451, 34.33014633769887], [72.86308908750506, 34.326944715187416], [72.86408787986367, 34.32304747548194], [72.86645566835288, 34.318579428996365], [72.86419046317766, 34.315747911501916], [72.8611894776385, 34.312947563892244], [72.85628898693945, 34.30884522641508], [72.85328799372547, 34.30634810317274], [72.85048763423784, 34.30294580064447], [72.85056795661353, 34.30017670760511], [72.85438941393026, 34.29954800341222], [72.85938802110451, 34.29884793768731], [72.86238902896127, 34.29594507703156], [72.86778896456987, 34.289947548603344], [72.87169064592223, 34.287945446610266], [72.87528921597386, 34.28694656426595], [72.87948967327523, 34.28604582719882], [72.8825886805267, 34.2844450147448], [72.89128842045315, 34.280748435776395], [72.89553799104574, 34.27589689883931], [72.8968890625912, 34.2691458822468], [72.89598828898374, 34.26654620695779], [72.89659027724312, 34.26254637145132], [72.89889123029575, 34.26074489025813], [72.90059009444937, 34.258345872236056], [72.90418859313917, 34.25604502328532], [72.91069001667084, 34.24974426349741], [72.93059092116954, 34.24604771914239], [72.93059092116953, 34.24269447955572], [72.93348938749403, 34.24144591539818], [72.9373910822157, 34.239947657770166], [72.94098956751897, 34.2385474992414], [72.94478868058907, 34.23384757589636], [72.95269021589239, 34.23084664720496], [72.95569122731995, 34.23164481177906], [72.95689075621445, 34.23484642302964], [72.96078801179924, 34.232344920881026], [72.96439091802455, 34.23024462799706], [72.9682882303504, 34.22724810296414], [72.97218989347158, 34.2264455115413], [72.97578839118758, 34.22544667661006], [72.9809877261258, 34.2213442511364], [72.98358735060494, 34.21804451498592], [72.98398864869208, 34.21454858810176], [72.98558950951664, 34.21164575490691], [72.988688578646, 34.21164572727334], [72.99104296816478, 34.21020544302527], [72.99244313943079, 34.214379204521], [72.99318777380061, 34.21814712857707], [72.99498930171701, 34.220746756479805], [72.99948855646328, 34.22374778079843], [73.0034883521712, 34.23084666774521], [73.00248951325285, 34.235145237809576], [73.00029118778238, 34.240045774135154], [72.99959108152818, 34.24534762850051], [72.99948855646328, 34.24884803053969], [73.00079056740566, 34.251648290226505], [73.0037870931014, 34.24924487906851], [73.00779131997024, 34.24754591732665], [73.0104891142727, 34.24934740078698], [73.015389676402, 34.250346306702426], [73.01663817815303, 34.254247966590775], [73.02094126460969, 34.25724448022098], [73.02833894320132, 34.26404462934234], [73.03249030011276, 34.264744703658174], [73.03549128380716, 34.26734434180029], [73.04338832967304, 34.26699653490561], [73.04799014710808, 34.26724628833412], [73.0497871992175, 34.26384846559587], [73.04729009377343, 34.26234571215769], [73.04873928830989, 34.2580962263621], [73.04869019833276, 34.25474742444238], [73.05143705933202, 34.25099733330929], [73.05648924949199, 34.25084572706811], [73.061287156471, 34.251594795341425], [73.06548764157044, 34.24964618482717], [73.06453788484673, 34.2449463066632], [73.06649098393599, 34.2415484641154], [73.07029013548237, 34.238244286813384], [73.07148961756599, 34.235644646598736], [73.0751372008941, 34.229647152180085], [73.07478937703796, 34.226347396791724], [73.07898979688356, 34.2270474360656], [73.08269084744995, 34.230547890994735], [73.08389035514091, 34.234895516008045], [73.08703854905369, 34.23244746826364], [73.09058799443389, 34.230944763934566], [73.09419087810873, 34.23224681108725], [73.09749067269145, 34.23174737514152], [73.10062093999669, 34.23572491562718], [73.1049016645309, 34.23578282545929], [73.10849126639101, 34.23684856778066], [73.1134408120829, 34.23699575755582], [73.11903705115876, 34.23924758056289], [73.12259095386429, 34.241695582667994], [73.12758953773412, 34.241445930856244], [73.1304879873145, 34.24384488846311], [73.13459032451802, 34.24794725399136], [73.13739063305583, 34.249797765199354], [73.1404897414928, 34.25134514714237], [73.14308937652198, 34.24794730985249], [73.14688851955157, 34.245847054203146], [73.14968885679268, 34.243844887767395], [73.1546875660605, 34.24134781085246], [73.15878991686036, 34.240447090031324], [73.1600875176594, 34.23804810667769], [73.1636904748808, 34.23674602729313], [73.16818967949753, 34.23594786957533], [73.17189072497925, 34.236848542379086], [73.17568992544315, 34.23764674360592], [73.17688939435334, 34.243046757793834], [73.18219123345781, 34.23819523403163], [73.18188804309673, 34.23404826843694], [73.1808891684067, 34.230748537310404], [73.18278879093947, 34.22754692912714], [73.18728797523568, 34.225897002887265], [73.19148848311089, 34.22754692334273], [73.19229116430517, 34.23034717128611], [73.19568900261876, 34.23504713665064], [73.19629093503183, 34.23784741137501], [73.19728974141465, 34.24129432563913], [73.19798987539917, 34.245445743456024], [73.19819051766258, 34.24804535805156], [73.19868991718879, 34.250645018730616], [73.20088823406395, 34.25274529787559], [73.2018871100276, 34.25524686520506], [73.20368862204865, 34.25864464100281], [73.20388925922221, 34.26324644796385], [73.2028903921639, 34.26674683322301], [73.20408989621649, 34.26994849969978], [73.20458937263867, 34.27274437060151], [73.20528939385987, 34.27564723106718], [73.20728710217935, 34.27869726824441], [73.2085891044473, 34.28299582988209], [73.21238831555118, 34.286246487712525], [73.21608935436082, 34.28544830038432], [73.22018725706742, 34.28514510163085], [73.22438777920262, 34.28714725787775], [73.22948896282142, 34.28704469369644], [73.23368940006094, 34.28444497668848], [73.23479081936192, 34.28024455177173], [73.23619094062083, 34.27704739978874], [73.24053857742447, 34.278420752621685], [73.24394090313206, 34.27544653186293], [73.24763745914039, 34.27314563449199], [73.25379101991072, 34.27094734527174], [73.2564887848378, 34.2739483331223], [73.2551912016153, 34.27804619973805], [73.25798703901839, 34.27974511600272], [73.26238815278353, 34.28224663961037], [73.26518848883518, 34.286148351365], [73.27139114449484, 34.288645530392735], [73.27158731147719, 34.29124515421847], [73.27158731147719, 34.29394739337467], [73.27354042325321, 34.297996261646766], [73.27238997456583, 34.301746337690886], [73.272590639883, 34.305246749420036], [73.2758903434509, 34.304345947737815], [73.28088902607963, 34.302446453149905], [73.28409061783229, 34.302647045405884], [73.28999005951037, 34.3045466344048], [73.29448923931854, 34.30464473067823], [73.29798961753433, 34.305545471492294], [73.30138746123579, 34.30894781172591], [73.30348777294843, 34.311944295986926], [73.31278940042436, 34.314147057709626], [73.31628984696438, 34.31444584613451], [73.31688731402075, 34.317745563827025], [73.3173912147247, 34.320545919032284], [73.32119036021186, 34.32064846160907], [73.32498952975078, 34.32158040633074], [73.32692480477594, 34.32406416974183], [73.32941296465702, 34.32833153533267], [73.33188778211768, 34.33124772870599], [73.33468804340247, 34.33454745884952], [73.33759091064013, 34.33614825668251], [73.34078807703938, 34.33764655942612], [73.34344123708051, 34.3406965830415], [73.34204107713701, 34.344197003324226], [73.34448912475085, 34.3476482909214], [73.34798960334763, 34.35114425305335], [73.35029042179309, 34.354345881737416], [73.35008982751744, 34.35894765815023], [73.35049110583635, 34.362144857936975], [73.35068729207538, 34.3652484245097], [73.35379080711202, 34.36574783549414], [73.35838815929642, 34.365444577897435], [73.35969026000024, 34.36794611021816], [73.36308804405014, 34.36964506766675], [73.36938875760565, 34.37004639209135], [73.37448999776882, 34.36864622043778], [73.37988998952113, 34.368347467485066], [73.38669008715628, 34.367745508727054], [73.3944132375187, 34.37165167158875], [73.39788691920823, 34.37331933307431], [73.39811435909365, 34.37340411467818], [73.39814556573378, 34.37388124133707], [73.39971956164473, 34.39887888955294], [73.40021005030704, 34.40148751822397], [73.40057130609382, 34.403391506939336], [73.40082095624118, 34.40471144266962], [73.4034919968547, 34.41332193281759], [73.40693891314525, 34.42443850436895], [73.41623611179476, 34.442908124122845], [73.42439180462306, 34.45910797987263], [73.42469951643113, 34.459718916587015], [73.42736153783484, 34.467428717897896], [73.42775844631309, 34.46860147583827], [73.42794125416182, 34.46893141504927], [73.42986760598569, 34.472427380733436], [73.43082182845872, 34.47416194282524], [73.43167353945918, 34.47724766779971], [73.43219965274281, 34.47915166170622], [73.43248505359668, 34.48102894406491], [73.43483055942517, 34.49655107523957], [73.43537006259042, 34.5001183815621], [73.43627975176184, 34.506124800015996], [73.43804112270817, 34.5177719398071], [73.43829081917602, 34.52731441356794], [73.43829531496858, 34.52755521043082], [73.43830862251404, 34.52805014164395], [73.44135863611973, 34.54999785851805], [73.44218809633692, 34.55297654739168], [73.44257598589554, 34.55435888301632], [73.44274987959504, 34.554992081572365], [73.44831934831842, 34.56304968636531], [73.45555198679412, 34.568329216296824], [73.4587714987156, 34.56960008929378], [73.46104119433402, 34.57049187360693], [73.46340895239571, 34.571428275268026], [73.4647065510278, 34.571941112641206], [73.4647109563585, 34.57194106644292], [73.47192577654914, 34.57245385329583], [73.47193027163179, 34.57245390141376], [73.47638044664514, 34.57277045511347], [73.48060767131412, 34.5727437123473], [73.48355513566825, 34.57272593211995], [73.50529329314553, 34.572587695545806], [73.51944200520931, 34.57249850057993], [73.52609051951676, 34.573608812104226], [73.53911109614616, 34.577189453943255], [73.54243313561997, 34.57810357138182], [73.5446537607225, 34.57871446291978], [73.5452602068324, 34.578879435245355], [73.54908163961669, 34.58117588020513], [73.54942053429738, 34.581380994438156], [73.55157871703967, 34.58162181559469], [73.55442813114973, 34.58193838733507], [73.55564545816236, 34.58251364581306], [73.55971212003818, 34.58443104941374], [73.5668021008934, 34.58551016405892], [73.57121216684746, 34.58617899907786], [73.57644711736339, 34.58697716035033], [73.58165983176923, 34.58777087441145], [73.58166432450257, 34.58777091784268], [73.58191843334201, 34.58773079879401], [73.58192292606977, 34.58773076003425], [73.5871980401737, 34.58694147994507], [73.59221002902915, 34.58483239668525], [73.59248209494358, 34.58472091664152], [73.59365032107354, 34.5840207762281], [73.59386883487427, 34.58388704626973], [73.5972488510082, 34.581858166323066], [73.59974597891322, 34.58035984962843], [73.60081164937128, 34.57971778596525], [73.60903871711128, 34.572667963267996], [73.60906989255571, 34.57264561500432], [73.61442975293065, 34.5680616655229], [73.62168468993364, 34.56518559055447], [73.62497998471505, 34.56387901450737], [73.63076793656766, 34.56387908565181], [73.63136101523291, 34.56387907890842], [73.63342105645899, 34.56427142099264], [73.63721130946575, 34.56498937828252], [73.64109967539954, 34.566938029149235], [73.6445108954161, 34.57099129453275], [73.64754748473693, 34.574594283816026], [73.64999109577855, 34.57748825992693], [73.65254174763497, 34.582910523635945], [73.65300101609093, 34.58389151293252], [73.65444124223052, 34.58694153487831], [73.65615361965446, 34.591801903089596], [73.66175862722463, 34.607694132249925], [73.66805049214244, 34.625548394328604], [73.67249171291267, 34.63498836997043], [73.67338357397163, 34.640018235459834], [73.6744180560606, 34.64582841800757], [73.67421292042208, 34.65748000067552], [73.67417726416262, 34.65961597044108], [73.67415049951038, 34.6611007844147], [73.67413711718292, 34.66114092224421], [73.6713680342766, 34.6688819978222], [73.6660884311886, 34.676658666707], [73.66465259839231, 34.678103401909134], [73.66432260511678, 34.678433341345276], [73.6630384645334, 34.679722017143035], [73.66298493230329, 34.6798468808984], [73.66252119530006, 34.68089921681571], [73.66109872061074, 34.684158818858776], [73.6636002826457, 34.69444152217283], [73.66755991130928, 34.69828080173122], [73.67210820247641, 34.702686432176726], [73.67275927164, 34.70331958913158], [73.67538571149437, 34.7046350195449], [73.67871220530232, 34.70629829111416], [73.68219922641651, 34.70805069803083], [73.68773741926137, 34.71178300075838], [73.68873177411277, 34.712451828648014], [73.69331129375841, 34.71554196591912], [73.69509042900324, 34.716380264527345], [73.6980290079213, 34.71777155778148], [73.6981493448833, 34.717967726942135], [73.69843034039202, 34.718440449574416], [73.69999992080062, 34.72109802269343], [73.70359837915252, 34.72470986116145], [73.70448579329104, 34.72590941485914], [73.70485146210291, 34.72639992273097], [73.70914999676914, 34.73221010624261], [73.71041193539665, 34.73472504331729], [73.7111120012798, 34.73611181335757], [73.71115663084672, 34.73641954829726], [73.71116103094434, 34.736459628712936], [73.71192799343608, 34.741378010185514], [73.71237392767307, 34.74210486775835], [73.71346190969729, 34.743870671303554], [73.71440728912764, 34.7454268614566], [73.71499141431187, 34.74638112651044], [73.71582077039876, 34.751941644164795], [73.72052960943839, 34.76720957726297], [73.72184508356963, 34.769015566237634], [73.72271903853984, 34.77021945199245], [73.72622388949794, 34.77505764036919], [73.72637994657056, 34.7752716208334], [73.7269462585354, 34.77577552955468], [73.7269462585354, 34.77577995987196], [73.72926051576756, 34.77784902003789], [73.73226593969304, 34.780546755631846], [73.73969930475937, 34.787222048748866], [73.76026912133341, 34.79943998171041], [73.77053842629905, 34.80166057269229], [73.77521160207174, 34.80173196278948], [73.78830797683524, 34.80192816374938], [73.79261989578012, 34.802579202882114], [73.79406908962667, 34.80280212023443], [73.79543802731409, 34.80300276786945], [73.79942001972972, 34.803600333758666], [73.80260830283926, 34.80522788629534], [73.81248069663154, 34.81027112193091], [73.81802786299679, 34.81581823140915], [73.82192961627834, 34.819719951093504], [73.82555038605507, 34.822395441266195], [73.82782894926257, 34.82408095843862], [73.8283061258434, 34.82443324401523], [73.82943870886916, 34.82528047895328], [73.83126249494089, 34.82595827264099], [73.83174854787225, 34.82614105687422], [73.83387995125007, 34.82693928143], [73.83793332344939, 34.827518935573636], [73.8379377207571, 34.82751895884204], [73.84554051927745, 34.82861137683492], [73.85793234198513, 34.826792110442646], [73.8663779035565, 34.82554804768873], [73.86990059376384, 34.82535629849257], [73.87341882422977, 34.82516005060418], [73.88530681950014, 34.824486759947334], [73.88610944716069, 34.82444213110837], [73.88730889655645, 34.824468873713684], [73.89833184092537, 34.82471863681139], [73.90677287915177, 34.82645764565839], [73.90775833539763, 34.826658367445084], [73.9124894427656, 34.828878953629676], [73.9126009483562, 34.82895925435576], [73.92386905263301, 34.83694105043231], [73.92970163267067, 34.84332195934142], [73.93387088304563, 34.84581909852978], [73.93534235650249, 34.8474243397232], [73.93718838735118, 34.8494399081698], [73.94719912748431, 34.85305176931866], [73.94733734097653, 34.85306508792558], [73.94905858846377, 34.85327912886139], [73.95013316076621, 34.85341738374065], [73.95165823417983, 34.85360910239721], [73.96665863197394, 34.858331293594496], [73.968344193519, 34.859017990547386], [73.97187131448878, 34.86044940753634], [73.97554113769245, 34.86193874095435], [73.97592908275382, 34.86224643718181], [73.97596029050563, 34.862273198904965], [73.97773948269567, 34.8636778173692], [73.9863812440747, 34.87054032656544], [73.98943125324814, 34.87499049744125], [73.99057724716633, 34.8770462131758], [73.9912416156235, 34.87824124304779], [73.99370753322287, 34.88264678601675], [73.99859919218734, 34.89138221172577], [74.00408385649698, 34.90442508242405], [74.00444054073974, 34.90526785407659], [74.00609492645604, 34.90755536034132], [74.00736132749049, 34.909298828532734], [74.01026862042875, 34.91332099240972], [74.01266319238806, 34.91566198581807], [74.01266319238806, 34.91566641317645], [74.02303947337226, 34.925828756408094], [74.02661570412864, 34.92866471209191], [74.02840823216182, 34.93009163086265], [74.03387957893526, 34.934430338630264], [74.05164905164044, 34.95554863282169], [74.05293773945374, 34.96132314427761], [74.05294222151906, 34.96132317204043], [74.05525199496545, 34.971659382188335], [74.05464118556772, 34.97985078031443], [74.05415067210545, 34.98637890448765], [74.05438248290203, 34.990726484355434], [74.05443160595787, 34.99165844563335], [74.05581834098739, 34.996099674979995], [74.0572586701596, 34.99728138936462], [74.05896646972731, 34.99867264744589], [74.05897534393428, 34.99868153896816], [74.06330967205426, 35.002222093719524], [74.06586474040444, 35.00311389668577], [74.06804967518669, 35.00388087993224], [74.06887009482817, 35.00463889447656], [74.07047542876566, 35.006110405303616], [74.07138063031725, 35.00693980815411], [74.07438159476368, 35.008259679262395], [74.0758218722611, 35.00888841359503], [74.07655316584157, 35.00953496314237], [74.07843933270544, 35.01118929968051], [74.0801025749327, 35.01265635574105], [74.08276021861809, 35.015001803495224], [74.08611349989465, 35.01948770266771], [74.08611789154803, 35.01948771776955], [74.0890787388882, 35.02345180855382], [74.08953806219928, 35.02407161269338], [74.08901187924558, 35.02428123186169], [74.08896285480083, 35.02429907126064], [74.08836981037014, 35.0245309334688], [74.08792831953058, 35.02470930190082], [74.08750027139526, 35.02487873946107], [74.08738877796088, 35.02491892133407], [74.0872014616726, 35.02499022258026], [74.08664856384891, 35.029159449605224], [74.0859351449057, 35.03059534750184], [74.08522163363651, 35.03203111551016], [74.08442790407261, 35.033609648336856], [74.08362977945634, 35.03478242404657], [74.07720862978529, 35.04415991256584], [74.07027025870556, 35.05026887222566], [74.0702658666835, 35.05027778033619], [74.06535632892174, 35.0565249961739], [74.06219934270476, 35.060538143049826], [74.06219934270476, 35.06054264549775], [74.06025958968527, 35.06943855590568], [74.06025958968527, 35.07471811304906], [74.06084824049493, 35.0778082530731], [74.06128074125623, 35.08007353290094], [74.06136993040954, 35.080550628783996], [74.06139664232869, 35.080608560555454], [74.06181139369049, 35.0814691926759], [74.06554366688019, 35.08941978272233], [74.06581122818824, 35.08999051024228], [74.07011868906862, 35.094690464958205], [74.07192909125351, 35.096661392443984], [74.08221178914273, 35.10556175455258], [74.08424067446872, 35.1066408357743], [74.08997954926672, 35.10972205949943], [74.09331934837589, 35.11304857825073], [74.09548200809883, 35.11419897048506], [74.10220194866073, 35.11777073146489], [74.10709798068197, 35.11966584413576], [74.10778022288525, 35.11992898325717], [74.10839112910934, 35.12016529818639], [74.10839112910934, 35.120169716333365], [74.11163292254592, 35.12142721563087], [74.115811101678, 35.123050312906074], [74.11594041091648, 35.12306811912829], [74.12747160440941, 35.124709082419635], [74.12737357559084, 35.12479832005631], [74.12732895185202, 35.12483841266025], [74.12471145525177, 35.12722400036401], [74.12470697489346, 35.127228473269916], [74.12442157584765, 35.127487100952536], [74.12442157584765, 35.12749160076292], [74.1134120989323, 35.13450127887712], [74.11219918888673, 35.13526826799506], [74.11219479784239, 35.13527275161794], [74.10094890672966, 35.1418052774573], [74.09499151105835, 35.145270053955315], [74.08028093543727, 35.151098020935116], [74.079184060479, 35.151049038341], [74.0744306229977, 35.15082159250334], [74.07385985110491, 35.15061203389667], [74.06715342114701, 35.148177397498415], [74.06309562020878, 35.14670138533657], [74.06160182201153, 35.14616185547114], [74.05934106846613, 35.145336907354334], [74.04999031036719, 35.14193909801938], [74.04754224207964, 35.1416670781407], [74.04499167794695, 35.141381704048946], [74.04461265825306, 35.141435214789816], [74.04460817599103, 35.14143518407036], [74.03166789318625, 35.143330331927615], [74.02777061984126, 35.14555095042821], [74.02653546403297, 35.14732568066087], [74.02275858279366, 35.152770262872124], [74.01970856682635, 35.15582023711683], [74.01891034918329, 35.158388722022195], [74.01832174782797, 35.16027043229567], [74.01004123898788, 35.1678687547955], [74.00832887590141, 35.169438362275], [74.00328566325683, 35.17201125080832], [74.00178745039992, 35.17277375889187], [73.99470187189759, 35.17639011136533], [73.97594692856653, 35.178490336458665], [73.97351674409286, 35.17876232366288], [73.96499090251436, 35.17306807839282], [73.96232883704647, 35.17186852214166], [73.96154849683946, 35.170767196884654], [73.95398142774044, 35.16571052817227], [73.95148872238002, 35.164047247473015], [73.94938855750755, 35.16124701888481], [73.94908980056378, 35.15844663858947], [73.95078869985423, 35.151744661055886], [73.9516894458601, 35.147446087371144], [73.95209071281772, 35.14384754261406], [73.95419093801283, 35.14094468581531], [73.95279082031549, 35.13794816668504], [73.94158951370085, 35.12714822158173], [73.93734006229782, 35.125146094167235], [73.93368799080675, 35.12224763898489], [73.93088771777205, 35.11884540191798], [73.92649101292446, 35.11594693058948], [73.92378885937933, 35.114248056719624], [73.9124894427656, 35.105945219064665], [73.90688878377719, 35.10594519966074], [73.90329032567917, 35.10644464644933], [73.89958925948837, 35.10764857016191], [73.89389052996701, 35.10794738007431], [73.88928879289523, 35.1073453490122], [73.8837906463287, 35.10624840554053], [73.87419027649587, 35.10514702296887], [73.86448723548607, 35.104148196480736], [73.86138815509204, 35.103247432712884], [73.85668829542034, 35.09864566709589], [73.85308981235826, 35.09314761747399], [73.84908996499549, 35.089745314773594], [73.8455896056921, 35.08634749197061], [73.84418942662134, 35.0839484828067], [73.84348928848895, 35.07944479599308], [73.8426911531136, 35.07514615786455], [73.84389068816054, 35.06674521802233], [73.84479138907827, 35.0632448428996], [73.84409134282093, 35.056547287996295], [73.8418885275505, 35.05274816962527], [73.83948951556046, 35.05084852807547], [73.84008700535685, 35.046246717264225], [73.84238792543636, 35.043147656136796], [73.84368994355768, 35.04054804070704], [73.84398877206074, 35.0371457189022], [73.84263766877466, 35.03359631276468], [73.83718865143653, 35.0299442532849], [73.83748740004218, 35.02364801815549], [73.8351909099607, 35.01824804020955], [73.82153714684853, 35.006395753625974], [73.8175908697435, 35.00384519002699], [73.81348852506075, 35.00204816141594], [73.80609084300391, 35.0042464808993], [73.80308984843302, 35.005646639692046], [73.79638786760306, 35.00804562140398], [73.79288747457676, 35.010845988464126], [73.78908828875137, 35.01414569161732], [73.77868968385322, 35.02164594266903], [73.77489049697931, 35.02084772811413], [73.77019065154806, 35.01734733705092], [73.76698901274335, 35.015345220243], [73.76348855317316, 35.014845766595755], [73.75668846274586, 35.01564839059273], [73.7502896404818, 35.01704854319918], [73.74599108460296, 35.0166472811917], [73.74168803735837, 35.01774864113432], [73.73858901777555, 35.01974634340528], [73.73438852925221, 35.020544498104336], [73.73099066923317, 35.02004506444608], [73.7272896186228, 35.020348309873484], [73.72498871775376, 35.02204719099404], [73.72279042378332, 35.02454431474474], [73.71838927431156, 35.026747086464724], [73.71233827811355, 35.02639480924937], [73.70749122650794, 35.02384871027006], [73.70598851547341, 35.019447551963424], [73.70329071979174, 35.01724478603117], [73.69859081927589, 35.01724473131198], [73.69389098947934, 35.01644655563792], [73.6906893062024, 35.01694604289598], [73.68768829412592, 35.017846774250366], [73.68309104497143, 35.017298253711196], [73.68038881375034, 35.012148009753105], [73.6813876052674, 35.008647613592935], [73.6812895315399, 35.00324763471839], [73.67918928749155, 34.99994788601239], [73.67798975416672, 34.99754447863522], [73.67579148952647, 34.99374534079811], [73.6729911735493, 34.99194831271161], [73.67078836420995, 34.98984805555654], [73.66868810175576, 34.986744503287035], [73.66599035010033, 34.984247421629696], [73.66319007922976, 34.98134457145642], [73.6590876404917, 34.980046936620596], [73.65418713296634, 34.98024758034775], [73.64599124394407, 34.985344382294755], [73.64258903136692, 34.985745672765546], [73.63849112052435, 34.98634765501647], [73.6329394657298, 34.996496573817375], [73.62968876616767, 35.00014854574888], [73.62638905502492, 35.000246632280444], [73.59658891705455, 34.997446342242185], [73.58479016507997, 34.99644752555931], [73.58409002688767, 34.993945996750064], [73.58348809664311, 34.99044556734985], [73.58278795405776, 34.987346478201225], [73.58158848715077, 34.98284727412712], [73.57848937546795, 34.9804482709061], [73.57374042951311, 34.97904807812183], [73.5682914532571, 34.9797482173125], [73.56488912924254, 34.981647769062235], [73.56219136724096, 34.97839704588463], [73.56038996419514, 34.96934512782902], [73.55729080641308, 34.966348596148826], [73.55508801924886, 34.963347572838536], [73.55399111027846, 34.96014595918624], [73.55259098378616, 34.95644489338596], [73.55338909298418, 34.95384524354656], [73.55338909298418, 34.94974736897887], [73.55139143277495, 34.94424480556628], [73.55058882253901, 34.94114579052859], [73.5480872398277, 34.93754721363799], [73.54468943935827, 34.93314615181615], [73.5408903045068, 34.927844291762064], [73.53569095093643, 34.92394699221651], [73.52848954509474, 34.920147847194045], [73.52438713359545, 34.91884579481773], [73.51949108046608, 34.91854706749732], [73.5155892921639, 34.91754816167755], [73.51079136855603, 34.915247291872724], [73.50548942752286, 34.91184499974866], [73.50119087880984, 34.90859426987419], [73.497989270085, 34.90384535010971], [73.49398946069009, 34.90211520622154], [73.4905871899775, 34.8991454991931], [73.48818818225926, 34.89654581138672], [73.48998966547533, 34.8926486109265], [73.49148792328579, 34.887346729970496], [73.49238865275647, 34.8818486282241], [73.49258929376856, 34.87854444286389], [73.49308873804141, 34.87544535091196], [73.49489017949934, 34.87214559775116], [73.49288800761067, 34.86834647416323], [73.48759065097994, 34.866045560415266], [73.48398771825572, 34.86424859473648], [73.47898905211825, 34.861345719432364], [73.4761886903568, 34.85934796424008], [73.47279089840215, 34.857047098874354], [73.46840313081762, 34.853939137577626], [73.46418923869999, 34.84974757282553], [73.4602875987351, 34.84514574262215], [73.45709040691159, 34.8406465107579], [73.45358999277322, 34.83684740524058], [73.45068715792215, 34.83414518496307], [73.44738741224813, 34.83204489803442], [73.44389142437672, 34.829846545651414], [73.44138992638474, 34.8282457498626], [73.4400878698451, 34.825048611382535], [73.43899090285576, 34.82194508335864], [73.43838891734842, 34.81864535714131], [73.43838891734842, 34.81424862980787], [73.43838891734842, 34.81104704173075], [73.43583835023446, 34.80734593543185], [73.42559126671202, 34.80514759949661], [73.40359011094407, 34.80194598401646], [73.39679000627595, 34.80014455408677], [73.39419029044487, 34.79764741042075], [73.39249142437535, 34.79274690235747], [73.39188939842964, 34.78844830308929], [73.39229068929001, 34.78144751833966], [73.39249142437535, 34.77834842282917], [73.39048928139913, 34.775244930710336], [73.38588748386957, 34.77234647510841], [73.3747887866222, 34.77264526237307], [73.3586913778349, 34.77504866224932], [73.34988914310419, 34.77874527508863], [73.34378909424672, 34.782945769023755], [73.33238715028327, 34.784644690071325], [73.32238985413197, 34.79284498866119], [73.31358759496126, 34.7939463723629], [73.302988338924, 34.79484711838219], [73.29178707915193, 34.794847116122575], [73.28228912643993, 34.79484710655857], [73.2738882112171, 34.794847100082414], [73.26898763492116, 34.79404443897209], [73.26109060406031, 34.793446968033784], [73.25548997309659, 34.79344698248831], [73.24598758331308, 34.79114604638286], [73.23978943780914, 34.7888451113036], [73.23538832670694, 34.786544217035924], [73.2280887995106, 34.78334710675337], [73.22028986343349, 34.78064489649181], [73.21758761007906, 34.77814777518101], [73.21348965978737, 34.77374659319774], [73.21439046101864, 34.770045564553726], [73.21509054164814, 34.76614831984005], [73.21789084227927, 34.76114521321255], [73.21968781540822, 34.758148680986395], [73.22368763765729, 34.7532481782373], [73.22498972457043, 34.749645171438544], [73.21979042200337, 34.7450478713432], [73.21459108861738, 34.73954536301629], [73.20728710217935, 34.735844282277085], [73.20589139056133, 34.73224577611045], [73.20438864607887, 34.72704643559296], [73.20079020950052, 34.72054514077534], [73.19668781167533, 34.70954447213355], [73.19939004681191, 34.705745341747544], [73.19998755864273, 34.70284691345179], [73.19998755864273, 34.699747878061785], [73.19998755864273, 34.696546188720006], [73.1976911170268, 34.68924668611677], [73.1947882163497, 34.68634828681637], [73.18988770304152, 34.68314665400291], [73.18689117203668, 34.67814796004766], [73.18518773693556, 34.67154851040631], [73.18479093003863, 34.665448456954316], [73.1848890515913, 34.6596471532206], [73.18508970553258, 34.65484467381952], [73.1841889668812, 34.64964538306221], [73.17958718586291, 34.64884719680974], [73.14238934265035, 34.65004673283594], [73.13149131590944, 34.65274450163273], [73.12598875660386, 34.64984602471421], [73.12139137830928, 34.64764772168277], [73.11888982611667, 34.64604689215418], [73.11459126334407, 34.643946644060605], [73.11128712224628, 34.64234583838037], [73.10748792691129, 34.63984425617096], [73.10388948426593, 34.63674524046244], [73.10128976344197, 34.63374867916553], [73.09774039322274, 34.62984698927331], [73.09448968248353, 34.62724730967601], [73.08958907960826, 34.6229442581696], [73.0880908793566, 34.617245591497976], [73.0872881908752, 34.60954473673886], [73.0872881908752, 34.60604426486061], [73.08649000252765, 34.600844971200914], [73.08739076728834, 34.59724651809404], [73.08678881690301, 34.58894812877422], [73.08669065309131, 34.584747606256045], [73.08968724218407, 34.57914701634926], [73.08978981752819, 34.57494652872051], [73.08938843157074, 34.57154871374329], [73.08708312797023, 34.567397319773136], [73.0830877420816, 34.563745307143655], [73.07998866760597, 34.56224698881285], [73.07528877699893, 34.56004868810798], [73.07119087343645, 34.55794843193084], [73.06649098393599, 34.557248392208535], [73.05849132423984, 34.55664634993137], [73.05368885581316, 34.55604443118903], [73.04839151487226, 34.55714584247584], [73.04478854781748, 34.55944673569747], [73.04159131815508, 34.56024491351869], [73.03663725933534, 34.56064617417523], [73.0329897010707, 34.5640485246856], [73.03048818156063, 34.567945785033324], [73.02908805757511, 34.570647983885834], [73.02768783510318, 34.57354635170281], [73.02648839698652, 34.57614606947492], [73.02488754511647, 34.58074782983794], [73.02348738752579, 34.58384693493711], [73.02158779724715, 34.58634845542497], [73.01728922696721, 34.58674528367853], [73.01258932913882, 34.5854476929525], [73.00678808499353, 34.58624593078316], [73.00203914695231, 34.58579553374894], [72.99959108152818, 34.58284805085684], [72.99648756131565, 34.58074781936792], [72.99388789913745, 34.57884827621641], [72.99108756547344, 34.57564658680278], [72.98488944958737, 34.57474588863319], [72.98059083780858, 34.575147224425166], [72.97508830215862, 34.57684612580399], [72.97178857531463, 34.57804559500855], [72.9655904028587, 34.57904444781341], [72.96159059465619, 34.57614601308741], [72.95458982160933, 34.569796235434055], [72.94959121545055, 34.56804829904913], [72.94478868058907, 34.56664812692505], [72.93958945212461, 34.56224698429016], [72.93649037099381, 34.56354462892933], [72.93328869576827, 34.56654555743573], [72.9296901842441, 34.57094668535225], [72.92548970430813, 34.57384515565188], [72.92128924058596, 34.57654737934222], [72.9131870369949, 34.58434629943089], [72.9110912576701, 34.58924688059987], [72.90529005138129, 34.59584636403736], [72.90438930929258, 34.59864668890046], [72.90418859313917, 34.60714566496953], [72.90448736903164, 34.617044939716195], [72.90068824587068, 34.6188463692991], [72.90068824587068, 34.630444505055976], [72.90068824587068, 34.63524696940081], [72.90238709730869, 34.645444881728466], [72.90429115938493, 34.65284704237566], [72.90628884908958, 34.661747387381965], [72.9072876426374, 34.668146215892044], [72.90549067648493, 34.67124529523164], [72.89848987875696, 34.675744554190686], [72.89598828898374, 34.67874547128885], [72.89528823576087, 34.682847894703976], [72.89968933472008, 34.70564720325907], [72.90118765482268, 34.711546654584396], [72.90038946524844, 34.71624653508581], [72.89679099974869, 34.72104450155393], [72.897789832822, 34.72874540407468], [72.89548886922205, 34.73594683572517], [72.89858794090604, 34.74974777238305], [72.89908735422617, 34.75264614897171], [72.8995912730207, 34.75584777035852], [72.90425546849947, 34.763214270472076], [72.89838731003246, 34.76204593213444], [72.89489138480515, 34.76204591693487], [72.89018698814964, 34.76254532973326], [72.88299005858808, 34.764048126411275], [72.87858892471577, 34.764846291591326], [72.87318895991953, 34.76584514767614], [72.86968852264079, 34.76664771172931], [72.86358848419935, 34.76819502986724], [72.85728780732637, 34.76864545332296], [72.85238723778505, 34.76894864654151], [72.84799059575552, 34.7689486662162], [72.84284029961835, 34.7688951311714], [72.83708803009137, 34.76884611589756], [72.83078738744607, 34.76684843506692], [72.82729138781548, 34.76194787772166], [72.82309092904714, 34.755147699209815], [72.82119136754525, 34.7526461921645], [72.81819039274261, 34.7501446512645], [72.81528747697318, 34.745846042824496], [72.8130891470162, 34.74214501281003], [72.8110870825761, 34.73784643161895], [72.81048948052741, 34.731746330559425], [72.80969135312928, 34.726845789042805], [72.80742165287194, 34.721008837382165], [72.80468821090346, 34.716745956728616], [72.80278868704026, 34.713646837547], [72.80088905831694, 34.71034716942761], [72.79948894283773, 34.70724809964215], [72.79808872921394, 34.702744406299225], [72.79749127585771, 34.69874456459722], [72.79648797293972, 34.693745874434924], [72.79618915432977, 34.68944732285479], [72.79638986958578, 34.68654443828193], [72.79758937877223, 34.682544643111584], [72.80048772515542, 34.679146822413784], [72.80258797701019, 34.677247225727974], [72.8051876370804, 34.67134786411858], [72.80628900390758, 34.66724542828208], [72.8051876370804, 34.66264809237988], [72.80409068343099, 34.65834508976796], [72.80308740745959, 34.65414464431712], [72.80219115494509, 34.651246218537565], [72.80048772515542, 34.647344522960324], [72.79869077967085, 34.643545356729234], [72.79718804022275, 34.6407450663587], [72.79548908420341, 34.637347182752784], [72.79279130693033, 34.63294602265201], [72.79028980194803, 34.62964633441081], [72.78669133047954, 34.626444677447545], [72.78218764413249, 34.623144967689726], [72.77849103413962, 34.62074598290384], [72.77728701339456, 34.61804818176583], [72.77808966448497, 34.613847706666405], [72.77948981142394, 34.610048594185805], [72.7806893127144, 34.60754701316421], [72.78678943769792, 34.600144901280174], [72.79119051618981, 34.59834785461554], [72.79578790366388, 34.5974471630939], [72.79919012787522, 34.595445002064665], [72.80208854554513, 34.592644731740606], [72.8044875925918, 34.589545651934536], [72.80628900390758, 34.587244763634935], [72.80858991141383, 34.58424824170938], [72.81159091370836, 34.58024839265006], [72.8147880713708, 34.57644482568369], [72.81579138962766, 34.573546338853454], [72.81638888858092, 34.5701485485438], [72.81598758078324, 34.56434722675975], [72.81489067545745, 34.561346291903334], [72.81279043877774, 34.557547102563255], [72.81028886696024, 34.55444801624463], [72.8078898766325, 34.55164774529896], [72.80499143728085, 34.549048061745125], [72.80208854554513, 34.54624772883195], [72.7985881688091, 34.54374619756099], [72.79309012966708, 34.540847798008556], [72.7899910659835, 34.539046313057874], [72.78739133544872, 34.53724482622912], [72.78389102020755, 34.537146780309435], [72.78159006203165, 34.53914437574941], [72.77783996912696, 34.54299710700831], [72.77284131976688, 34.542845436485074], [72.76988944325396, 34.539046279760946], [72.76598767110391, 34.53694610031743], [72.7617872477905, 34.533744454940404], [72.7564897684673, 34.53284814974361], [72.75278871649942, 34.5331959267042], [72.74888703612265, 34.53444449169225], [72.73828771689003, 34.53584467595301], [72.73132713933624, 34.53702637676094], [72.72829043909137, 34.53344564704219], [72.72919119809787, 34.52834445955417], [72.72838856939805, 34.52494662138253], [72.72849111913511, 34.52094678568906], [72.73198707492298, 34.517745189712016], [72.73739150021034, 34.514445422210095], [72.74128876115869, 34.5123452155033], [72.7472906510381, 34.5053443852144], [72.74898957742778, 34.502847329202304], [72.75018913620404, 34.50044837410071], [72.75286456160819, 34.497915580088254], [72.75669042579163, 34.49574843740989], [72.7602889731739, 34.49114661838552], [72.76209043672532, 34.487244935503846], [72.76609020534406, 34.48414588577555], [72.76968870643653, 34.48104674895701], [72.77188706330156, 34.47894655617554], [72.76864083235637, 34.47314522398621], [72.76188978376861, 34.472048359932266], [72.75778740975265, 34.47164699402078], [72.75378759743188, 34.470046151279455], [72.75059037068381, 34.4675445818872], [72.747687561252, 34.46264852943995], [72.74438780310348, 34.460146948054906], [72.74058862594876, 34.45904556153853], [72.73599129612307, 34.460646380492435], [72.72878983897365, 34.46134644957921], [72.72278795501552, 34.461845920306395], [72.71889067600534, 34.460847097281345], [72.71598776849692, 34.457547319171404], [72.7155908980913, 34.45464444643931]]]}, "id": "00010000000000001686", "properties": {"ADM0_CODE": 188, "ADM0_NAME": "Pakistan", "ADM1_CODE": 2275, "ADM1_NAME": "North-West Frontier", "ADM2_CODE": 40344, "ADM2_NAME": "Mansehra District", "DISP_AREA": "NO", "EXP2_YEAR": 3000, "STATUS": "Member State", "STR2_YEAR": 1000, "Shape_Area": 0.454681141284, "Shape_Leng": 4.96117674442}}]}